[Satellite]
VERSION=1.1
NAME=METOP-B
NICKNAME=METOP-B
TLE1=1 38771U 12049A   20157.74296135 -.00000000  00000-0  19862-4 0  9995
TLE2=2 38771  98.6922 217.2278 0002014  71.1274  37.1421 14.21497483400366
STATUS=0
